{"type": "FeatureCollection", "features": [ {"type": "Feature", "properties": {"norad_id": 35480, "name": "IRIDIUM 33 DEB", "group": "iridium-33-debris", "lat": 22.280690536067944, "lon": 30.86705268589741, "alt_km": 730.6549267167056, "timestamp": "2025-12-02T10:50:47.660341+00:00", "meta": {"OBJECT_NAME": "IRIDIUM 33 DEB", "OBJECT_ID": "1997-051QA", "EPOCH": "2025-12-01T21:29:27.496032", "MEAN_MOTION": 14.49686619, "ECCENTRICITY": 0.001555, "INCLINATION": 86.3575, "RA_OF_ASC_NODE": 29.6125, "ARG_OF_PERICENTER": 136.7189, "MEAN_ANOMALY": 223.524, "EPHEMERIS_TYPE": 0, "CLASSIFICATION_TYPE": "U", "NORAD_CAT_ID": 35480, "ELEMENT_SET_NO": 999, "REV_AT_EPOCH": 86874, "BSTAR": 0.0006517, "MEAN_MOTION_DOT": 2.53e-05, "MEAN_MOTION_DDOT": 0}, "tle": {"line1": "1 35480U 97051QA  25335.89545713  .00002530  00000+0  65170-3 0  9993", "line2": "2 35480  86.3575  29.6125 0015550 136.7189 223.5240 14.49686619868747"}}, "geometry": {"type": "Point", "coordinates": [30.86705268589741, 22.280690536067944]}}, {"type": "Feature", "properties": {"norad_id": 35484, "name": "IRIDIUM 33 DEB", "group": "iridium-33-debris", "lat": -17.195577757049296, "lon": 178.68358488101376, "alt_km": 567.1399880629451, "timestamp": "2025-12-02T10:50:47.660351+00:00", "meta": {"OBJECT_NAME": "IRIDIUM 33 DEB", "OBJECT_ID": "1997-051QE", "EPOCH": "2025-12-01T19:32:14.692416", "MEAN_MOTION": 14.97587734, "ECCENTRICITY": 0.0021829, "INCLINATION": 86.3628, "RA_OF_ASC_NODE": 357.8533, "ARG_OF_PERICENTER": 162.6444, "MEAN_ANOMALY": 197.5538, "EPHEMERIS_TYPE": 0, "CLASSIFICATION_TYPE": "U", "NORAD_CAT_ID": 35484, "ELEMENT_SET_NO": 999, "REV_AT_EPOCH": 61852, "BSTAR": 0.0025031, "MEAN_MOTION_DOT": 0.00029486, "MEAN_MOTION_DDOT": 0}, "tle": {"line1": "1 35484U 97051QE  25335.81405894  .00029486  00000+0  25031-2 0  9994", "line2": "2 35484  86.3628 357.8533 0021829 162.6444 197.5538 14.97587734618527"}}, "geometry": {"type": "Point", "coordinates": [178.68358488101376, -17.195577757049296]}}, {"type": "Feature", "properties": {"norad_id": 35488, "name": "IRIDIUM 33 DEB", "group": "iridium-33-debris", "lat": 27.588355454616945, "lon": 123.69520452781352, "alt_km": 615.1562371077889, "timestamp": "2025-12-02T10:50:47.660362+00:00", "meta": {"OBJECT_NAME": "IRIDIUM 33 DEB", "OBJECT_ID": "1997-051QJ", "EPOCH": "2025-12-01T08:14:53.482848", "MEAN_MOTION": 14.82615627, "ECCENTRICITY": 0.00309682, "INCLINATION": 86.3231, "RA_OF_ASC_NODE": 306.1315, "ARG_OF_PERICENTER": 78.8041, "MEAN_ANOMALY": 281.666, "EPHEMERIS_TYPE": 0, "CLASSIFICATION_TYPE": "U", "NORAD_CAT_ID": 35488, "ELEMENT_SET_NO": 999, "REV_AT_EPOCH": 88097, "BSTAR": 0.0016299271, "MEAN_MOTION_DOT": 0.00013268, "MEAN_MOTION_DDOT": 0}, "tle": {"line1": "1 35488U 97051QJ  25335.34367457  .00013268  00000+0  16299-2 0  9995", "line2": "2 35488  86.3231 306.1315 0030968  78.8041 281.6660 14.82615627880979"}}, "geometry": {"type": "Point", "coordinates": [123.69520452781352, 27.588355454616945]}}, {"type": "Feature", "properties": {"norad_id": 35616, "name": "IRIDIUM 33 DEB", "group": "iridium-33-debris", "lat": -2.7832501556242124, "lon": -9.717615403294968, "alt_km": 633.9385814365696, "timestamp": "2025-12-02T10:50:47.660372+00:00", "meta": {"OBJECT_NAME": "IRIDIUM 33 DEB", "OBJECT_ID": "1997-051QN", "EPOCH": "2025-12-01T18:38:49.910784", "MEAN_MOTION": 14.81359224, "ECCENTRICITY": 0.0008619, "INCLINATION": 86.3548, "RA_OF_ASC_NODE": 350.7677, "ARG_OF_PERICENTER": 204.4295, "MEAN_ANOMALY": 155.6519, "EPHEMERIS_TYPE": 0, "CLASSIFICATION_TYPE": "U", "NORAD_CAT_ID": 35616, "ELEMENT_SET_NO": 999, "REV_AT_EPOCH": 87412, "BSTAR": 0.0016385, "MEAN_MOTION_DOT": 0.00012841, "MEAN_MOTION_DDOT": 0}, "tle": {"line1": "1 35616U 97051QN  25335.77696656  .00012841  00000+0  16385-2 0  9993", "line2": "2 35616  86.3548 350.7677 0008619 204.4295 155.6519 14.81359224874125"}}, "geometry": {"type": "Point", "coordinates": [-9.717615403294968, -2.7832501556242124]}}, {"type": "Feature", "properties": {"norad_id": 35618, "name": "IRIDIUM 33 DEB", "group": "iridium-33-debris", "lat": 51.52199265765787, "lon": 173.38243167665266, "alt_km": 707.5101221215809, "timestamp": "2025-12-02T10:50:47.660382+00:00", "meta": {"OBJECT_NAME": "IRIDIUM 33 DEB", "OBJECT_ID": "1997-051QQ", "EPOCH": "2025-11-27T19:27:47.606688", "MEAN_MOTION": 14.52216193, "ECCENTRICITY": 0.00308317, "INCLINATION": 86.3414, "RA_OF_ASC_NODE": 0.0275, "ARG_OF_PERICENTER": 70.0508, "MEAN_ANOMALY": 290.4015, "EPHEMERIS_TYPE": 0, "CLASSIFICATION_TYPE": "U", "NORAD_CAT_ID": 35618, "ELEMENT_SET_NO": 999, "REV_AT_EPOCH": 65177, "BSTAR": 0.00046503481, "MEAN_MOTION_DOT": 1.919e-05, "MEAN_MOTION_DDOT": 0}, "tle": {"line1": "1 35618U 97051QQ  25331.81096767  .00001919  00000+0  46503-3 0  9993", "line2": "2 35618  86.3414   0.0275 0030831  70.0508 290.4015 14.52216193651771"}}, "geometry": {"type": "Point", "coordinates": [173.38243167665266, 51.52199265765787]}}, {"type": "Feature", "properties": {"norad_id": 35620, "name": "IRIDIUM 33 DEB", "group": "iridium-33-debris", "lat": -72.86596204918882, "lon": -150.03024166311093, "alt_km": 670.7299634977571, "timestamp": "2025-12-02T10:50:47.660393+00:00", "meta": {"OBJECT_NAME": "IRIDIUM 33 DEB", "OBJECT_ID": "1997-051QS", "EPOCH": "2025-12-01T10:07:05.856384", "MEAN_MOTION": 14.37391446, "ECCENTRICITY": 0.0145824, "INCLINATION": 86.3886, "RA_OF_ASC_NODE": 222.2249, "ARG_OF_PERICENTER": 296.0647, "MEAN_ANOMALY": 62.56, "EPHEMERIS_TYPE": 0, "CLASSIFICATION_TYPE": "U", "NORAD_CAT_ID": 35620, "ELEMENT_SET_NO": 999, "REV_AT_EPOCH": 59803, "BSTAR": 0.0070563828, "MEAN_MOTION_DOT": 0.00023904, "MEAN_MOTION_DDOT": 0}, "tle": {"line1": "1 35620U 97051QS  25335.42159556  .00023904  00000+0  70564-2 0  9994", "line2": "2 35620  86.3886 222.2249 0145824 296.0647  62.5600 14.37391446598034"}}, "geometry": {"type": "Point", "coordinates": [-150.03024166311093, -72.86596204918882]}}, {"type": "Feature", "properties": {"norad_id": 35622, "name": "IRIDIUM 33 DEB", "group": "iridium-33-debris", "lat": 84.19324187521146, "lon": 47.89111444742568, "alt_km": 552.1409610639485, "timestamp": "2025-12-02T10:50:47.660403+00:00", "meta": {"OBJECT_NAME": "IRIDIUM 33 DEB", "OBJECT_ID": "1997-051QU", "EPOCH": "2025-11-30T14:26:56.846112", "MEAN_MOTION": 15.02344133, "ECCENTRICITY": 0.0011317, "INCLINATION": 86.2032, "RA_OF_ASC_NODE": 269.5689, "ARG_OF_PERICENTER": 6.0229, "MEAN_ANOMALY": 169.0452, "EPHEMERIS_TYPE": 0, "CLASSIFICATION_TYPE": "U", "NORAD_CAT_ID": 35622, "ELEMENT_SET_NO": 999, "REV_AT_EPOCH": 87177, "BSTAR": 0.0052905, "MEAN_MOTION_DOT": 0.00070654, "MEAN_MOTION_DDOT": 0}, "tle": {"line1": "1 35622U 97051QU  25334.60204683  .00070654  00000+0  52905-2 0  9990", "line2": "2 35622  86.2032 269.5689 0011317   6.0229 169.0452 15.02344133871771"}}, "geometry": {"type": "Point", "coordinates": [47.89111444742568, 84.19324187521146]}}, {"type": "Feature", "properties": {"norad_id": 35628, "name": "IRIDIUM 33 DEB", "group": "iridium-33-debris", "lat": -3.4831377269152033, "lon": -166.1147449879861, "alt_km": 681.1588043225674, "timestamp": "2025-12-02T10:50:47.660414+00:00", "meta": {"OBJECT_NAME": "IRIDIUM 33 DEB", "OBJECT_ID": "1997-051RA", "EPOCH": "2025-12-01T09:27:48.625056", "MEAN_MOTION": 14.67320327, "ECCENTRICITY": 0.00118206, "INCLINATION": 86.3586, "RA_OF_ASC_NODE": 14.1343, "ARG_OF_PERICENTER": 22.1309, "MEAN_ANOMALY": 338.0413, "EPHEMERIS_TYPE": 0, "CLASSIFICATION_TYPE": "U", "NORAD_CAT_ID": 35628, "ELEMENT_SET_NO": 999, "REV_AT_EPOCH": 86280, "BSTAR": 0.0015830322, "MEAN_MOTION_DOT": 8.967e-05, "MEAN_MOTION_DDOT": 0}, "tle": {"line1": "1 35628U 97051RA  25335.39431279  .00008967  00000+0  15830-2 0  9990", "line2": "2 35628  86.3586  14.1343 0011820  22.1309 338.0413 14.67320327862808"}}, "geometry": {"type": "Point", "coordinates": [-166.1147449879861, -3.4831377269152033]}}, {"type": "Feature", "properties": {"norad_id": 35631, "name": "IRIDIUM 33 DEB", "group": "iridium-33-debris", "lat": 74.21656144436761, "lon": -167.57925498920363, "alt_km": 718.39773281818, "timestamp": "2025-12-02T10:50:47.660424+00:00", "meta": {"OBJECT_NAME": "IRIDIUM 33 DEB", "OBJECT_ID": "1997-051RD", "EPOCH": "2025-12-01T09:32:13.809120", "MEAN_MOTION": 14.47260749, "ECCENTRICITY": 0.00179714, "INCLINATION": 86.3683, "RA_OF_ASC_NODE": 25.8593, "ARG_OF_PERICENTER": 152.8458, "MEAN_ANOMALY": 221.75, "EPHEMERIS_TYPE": 0, "CLASSIFICATION_TYPE": "U", "NORAD_CAT_ID": 35631, "ELEMENT_SET_NO": 999, "REV_AT_EPOCH": 87033, "BSTAR": 0.00039861832, "MEAN_MOTION_DOT": 1.48e-05, "MEAN_MOTION_DDOT": 0}, "tle": {"line1": "1 35631U 97051RD  25335.39738205  .00001480  00000+0  39862-3 0  9998", "line2": "2 35631  86.3683  25.8593 0017971 152.8458 221.7500 14.47260749870336"}}, "geometry": {"type": "Point", "coordinates": [-167.57925498920363, 74.21656144436761]}}, {"type": "Feature", "properties": {"norad_id": 35680, "name": "IRIDIUM 33 DEB", "group": "iridium-33-debris", "lat": -22.582272395340173, "lon": 24.452612091556112, "alt_km": 731.1257732115055, "timestamp": "2025-12-02T10:50:47.660435+00:00", "meta": {"OBJECT_NAME": "IRIDIUM 33 DEB", "OBJECT_ID": "1997-051RJ", "EPOCH": "2025-12-01T22:00:09.278784", "MEAN_MOTION": 14.20616647, "ECCENTRICITY": 0.0150126, "INCLINATION": 86.103, "RA_OF_ASC_NODE": 26.3138, "ARG_OF_PERICENTER": 313.2693, "MEAN_ANOMALY": 168.1986, "EPHEMERIS_TYPE": 0, "CLASSIFICATION_TYPE": "U", "NORAD_CAT_ID": 35680, "ELEMENT_SET_NO": 999, "REV_AT_EPOCH": 60547, "BSTAR": 0.0036693, "MEAN_MOTION_DOT": 8.864e-05, "MEAN_MOTION_DDOT": 0}, "tle": {"line1": "1 35680U 97051RJ  25335.91677406  .00008864  00000+0  36693-2 0  9996", "line2": "2 35680  86.1030  26.3138 0150126 313.2693 168.1986 14.20616647605475"}}, "geometry": {"type": "Point", "coordinates": [24.452612091556112, -22.582272395340173]}}]}